[{"OBJECT_NAME":"STARLINK-35030","OBJECT_ID":"2025-194Q","EPOCH":"2026-03-09T14:27:46.567584","MEAN_MOTION":15.05645173,"ECCENTRICITY":0.0002509,"INCLINATION":97.6021,"RA_OF_ASC_NODE":284.2918,"ARG_OF_PERICENTER":97.3588,"MEAN_ANOMALY":262.7924,"EPHEMERIS_TYPE":0,"CLASSIFICATION_TYPE":"U","NORAD_CAT_ID":65448,"ELEMENT_SET_NO":999,"REV_AT_EPOCH":2963,"BSTAR":-3.8943e-5,"MEAN_MOTION_DOT":-6.23e-6,"MEAN_MOTION_DDOT":0},{"OBJECT_NAME":"COSMOS 2251 DEB","OBJECT_ID":"1993-036AUM","EPOCH":"2026-03-08T12:34:22.155456","MEAN_MOTION":14.96324912,"ECCENTRICITY":0.00809203,"INCLINATION":73.9894,"RA_OF_ASC_NODE":123.8265,"ARG_OF_PERICENTER":247.0296,"MEAN_ANOMALY":179.8153,"EPHEMERIS_TYPE":0,"CLASSIFICATION_TYPE":"U","NORAD_CAT_ID":35898,"ELEMENT_SET_NO":999,"REV_AT_EPOCH":68092,"BSTAR":0.00097608609,"MEAN_MOTION_DOT":0.00011776,"MEAN_MOTION_DDOT":0}]
